ONEWEB-0713             
1 55175U 23004AM  25253.94799361  .00000314  00000+0  85041-3 0  9995
2 55175  87.8775  76.6993 0001966  91.0691 269.0662 13.11418915129226
ONEWEB-0715             
1 55176U 23004AN  25254.24810150  .00000391  00000+0  10671-2 0  9991
2 55176  87.8771  76.6400 0001656 115.0325 245.0975 13.11417383129301
ONEWEB-0716             
1 55177U 23004AP  25254.20754396  .00000040  00000+0  70920-4 0  9993
2 55177  87.9037  61.3718 0001584  85.6669 274.4644 13.17648624130844
ONEWEB-0717             
1 55178U 23004AQ  25254.19066123  .00000010  00000+0 -78192-5 0  9994
2 55178  87.9048  61.3375 0002449 100.4886 259.6521 13.17648502130893
ONEWEB-0719             
1 55179U 23004AR  25254.20077984  .00000035  00000+0  58134-4 0  9993
2 55179  87.9046  61.3184 0001753  84.2106 275.9225 13.17650753130849
ONEWEB-0530             
1 55796U 23029A   25254.15395821  .00000111  00000+0  24145-3 0  9991
2 55796  87.9280 330.1122 0002421  95.6970 264.4440 13.20771951124316
ONEWEB-0534             
1 55797U 23029B   25254.21709516  .00000050  00000+0  91243-4 0  9995
2 55797  87.9273 330.1039 0001795  95.4563 264.6775 13.20772344124326
ONEWEB-0556             
1 55798U 23029C   25254.22340968  .00000038  00000+0  61321-4 0  9999
2 55798  87.9280 330.0979 0002196  78.4512 281.6868 13.20771847124327
ONEWEB-0562             
1 55799U 23029D   25254.13500339 -.00000024  00000+0 -91103-4 0  9998
2 55799  87.9271 330.1029 0002678  86.6489 273.4951 13.20769244124313
ONEWEB-0563             
1 55800U 23029E   25253.97716474 -.00000036  00000+0 -12037-3 0  9992
2 55800  87.9281 330.1551 0001733  91.8021 268.3310 13.20774178124288
ONEWEB-0564             
1 55801U 23029F   25254.19813297  .00000056  00000+0  10543-3 0  9999
2 55801  87.9272 330.0933 0002258  94.9182 265.2209 13.20769800124321
ONEWEB-0638             
1 55802U 23029G   25254.26914911 -.00000079  00000+0 -24850-3 0  9996
2 55802  87.9092 345.3015 0002010  85.9174 274.2186 13.14502900122757
ONEWEB-0639             
1 55803U 23029H   25254.02611377  .00000057  00000+0  10942-3 0  9992
2 55803  87.9286   0.4951 0000666  99.5572 260.5636 13.19724099122083
ONEWEB-0640             
1 55804U 23029J   25254.20254844 -.00000166  00000+0 -48119-3 0  9995
2 55804  87.9086 345.3004 0001717  76.7651 283.3670 13.14503630122762
ONEWEB-0641             
1 55805U 23029K   25254.02136254 -.00000217  00000+0 -57330-3 0  9992
2 55805  87.9292   0.4691 0001587 101.4532 258.6779 13.19724369122092
ONEWEB-0642             
1 55806U 23029L   25254.24408425  .00000115  00000+0  25528-3 0  9998
2 55806  87.9276   0.4590 0000982 117.2799 242.8434 13.19725108122119
ONEWEB-0643             
1 55807U 23029M   25254.02017301  .00000200  00000+0  50628-3 0  9998
2 55807  87.9090 345.3198 0001338 121.9630 238.1630 13.14504370122714
