[{"OBJECT_NAME":"ONEWEB-0713","OBJECT_ID":"2023-004AM","EPOCH":"2025-09-10T22:45:06.647904","MEAN_MOTION":13.11418915,"ECCENTRICITY":0.00019668,"INCLINATION":87.8775,"RA_OF_ASC_NODE":76.6993,"ARG_OF_PERICENTER":91.0691,"MEAN_ANOMALY":269.0662,"EPHEMERIS_TYPE":0,"CLASSIFICATION_TYPE":"U","NORAD_CAT_ID":55175,"ELEMENT_SET_NO":999,"REV_AT_EPOCH":12922,"BSTAR":0.00085040738,"MEAN_MOTION_DOT":3.14e-6,"MEAN_MOTION_DDOT":0},{"OBJECT_NAME":"ONEWEB-0715","OBJECT_ID":"2023-004AN","EPOCH":"2025-09-11T05:57:15.969600","MEAN_MOTION":13.11417383,"ECCENTRICITY":0.00016567,"INCLINATION":87.8771,"RA_OF_ASC_NODE":76.64,"ARG_OF_PERICENTER":115.0325,"MEAN_ANOMALY":245.0975,"EPHEMERIS_TYPE":0,"CLASSIFICATION_TYPE":"U","NORAD_CAT_ID":55176,"ELEMENT_SET_NO":999,"REV_AT_EPOCH":12930,"BSTAR":0.0010670825,"MEAN_MOTION_DOT":3.91e-6,"MEAN_MOTION_DDOT":0},{"OBJECT_NAME":"ONEWEB-0716","OBJECT_ID":"2023-004AP","EPOCH":"2025-09-11T04:58:51.798144","MEAN_MOTION":13.17648624,"ECCENTRICITY":0.00015849,"INCLINATION":87.9037,"RA_OF_ASC_NODE":61.3718,"ARG_OF_PERICENTER":85.6669,"MEAN_ANOMALY":274.4644,"EPHEMERIS_TYPE":0,"CLASSIFICATION_TYPE":"U","NORAD_CAT_ID":55177,"ELEMENT_SET_NO":999,"REV_AT_EPOCH":13084,"BSTAR":7.0919955e-5,"MEAN_MOTION_DOT":4.0e-7,"MEAN_MOTION_DDOT":0},{"OBJECT_NAME":"ONEWEB-0717","OBJECT_ID":"2023-004AQ","EPOCH":"2025-09-11T04:34:33.130272","MEAN_MOTION":13.17648502,"ECCENTRICITY":0.00024494,"INCLINATION":87.9048,"RA_OF_ASC_NODE":61.3375,"ARG_OF_PERICENTER":100.4886,"MEAN_ANOMALY":259.6521,"EPHEMERIS_TYPE":0,"CLASSIFICATION_TYPE":"U","NORAD_CAT_ID":55178,"ELEMENT_SET_NO":999,"REV_AT_EPOCH":13089,"BSTAR":-7.819215e-6,"MEAN_MOTION_DOT":1.0e-7,"MEAN_MOTION_DDOT":0},{"OBJECT_NAME":"ONEWEB-0719","OBJECT_ID":"2023-004AR","EPOCH":"2025-09-11T04:49:07.378176","MEAN_MOTION":13.17650753,"ECCENTRICITY":0.00017536,"INCLINATION":87.9046,"RA_OF_ASC_NODE":61.3184,"ARG_OF_PERICENTER":84.2106,"MEAN_ANOMALY":275.9225,"EPHEMERIS_TYPE":0,"CLASSIFICATION_TYPE":"U","NORAD_CAT_ID":55179,"ELEMENT_SET_NO":999,"REV_AT_EPOCH":13084,"BSTAR":5.81345e-5,"MEAN_MOTION_DOT":3.5e-7,"MEAN_MOTION_DDOT":0},{"OBJECT_NAME":"ONEWEB-0530","OBJECT_ID":"2023-029A","EPOCH":"2025-09-11T03:41:41.989344","MEAN_MOTION":13.20771951,"ECCENTRICITY":0.00024217,"INCLINATION":87.928,"RA_OF_ASC_NODE":330.1122,"ARG_OF_PERICENTER":95.697,"MEAN_ANOMALY":264.444,"EPHEMERIS_TYPE":0,"CLASSIFICATION_TYPE":"U","NORAD_CAT_ID":55796,"ELEMENT_SET_NO":999,"REV_AT_EPOCH":12431,"BSTAR":0.00024144805,"MEAN_MOTION_DOT":1.11e-6,"MEAN_MOTION_DDOT":0},{"OBJECT_NAME":"ONEWEB-0534","OBJECT_ID":"2023-029B","EPOCH":"2025-09-11T05:12:37.021824","MEAN_MOTION":13.20772344,"ECCENTRICITY":0.00017959,"INCLINATION":87.9273,"RA_OF_ASC_NODE":330.1039,"ARG_OF_PERICENTER":95.4563,"MEAN_ANOMALY":264.6775,"EPHEMERIS_TYPE":0,"CLASSIFICATION_TYPE":"U","NORAD_CAT_ID":55797,"ELEMENT_SET_NO":999,"REV_AT_EPOCH":12432,"BSTAR":9.1242703e-5,"MEAN_MOTION_DOT":5.0e-7,"MEAN_MOTION_DDOT":0},{"OBJECT_NAME":"ONEWEB-0556","OBJECT_ID":"2023-029C","EPOCH":"2025-09-11T05:21:42.596352","MEAN_MOTION":13.20771847,"ECCENTRICITY":0.00021963,"INCLINATION":87.928,"RA_OF_ASC_NODE":330.0979,"ARG_OF_PERICENTER":78.4512,"MEAN_ANOMALY":281.6868,"EPHEMERIS_TYPE":0,"CLASSIFICATION_TYPE":"U","NORAD_CAT_ID":55798,"ELEMENT_SET_NO":999,"REV_AT_EPOCH":12432,"BSTAR":6.1320877e-5,"MEAN_MOTION_DOT":3.8e-7,"MEAN_MOTION_DDOT":0},{"OBJECT_NAME":"ONEWEB-0562","OBJECT_ID":"2023-029D","EPOCH":"2025-09-11T03:14:24.292896","MEAN_MOTION":13.20769244,"ECCENTRICITY":0.00026788,"INCLINATION":87.9271,"RA_OF_ASC_NODE":330.1029,"ARG_OF_PERICENTER":86.6489,"MEAN_ANOMALY":273.4951,"EPHEMERIS_TYPE":0,"CLASSIFICATION_TYPE":"U","NORAD_CAT_ID":55799,"ELEMENT_SET_NO":999,"REV_AT_EPOCH":12431,"BSTAR":-9.110291e-5,"MEAN_MOTION_DOT":-2.4e-7,"MEAN_MOTION_DDOT":0},{"OBJECT_NAME":"ONEWEB-0563","OBJECT_ID":"2023-029E","EPOCH":"2025-09-10T23:27:07.033536","MEAN_MOTION":13.20774178,"ECCENTRICITY":0.0001733,"INCLINATION":87.9281,"RA_OF_ASC_NODE":330.1551,"ARG_OF_PERICENTER":91.8021,"MEAN_ANOMALY":268.331,"EPHEMERIS_TYPE":0,"CLASSIFICATION_TYPE":"U","NORAD_CAT_ID":55800,"ELEMENT_SET_NO":999,"REV_AT_EPOCH":12428,"BSTAR":-0.00012036954,"MEAN_MOTION_DOT":-3.6e-7,"MEAN_MOTION_DDOT":0},{"OBJECT_NAME":"ONEWEB-0564","OBJECT_ID":"2023-029F","EPOCH":"2025-09-11T04:45:18.688608","MEAN_MOTION":13.207698,"ECCENTRICITY":0.00022585,"INCLINATION":87.9272,"RA_OF_ASC_NODE":330.0933,"ARG_OF_PERICENTER":94.9182,"MEAN_ANOMALY":265.2209,"EPHEMERIS_TYPE":0,"CLASSIFICATION_TYPE":"U","NORAD_CAT_ID":55801,"ELEMENT_SET_NO":999,"REV_AT_EPOCH":12432,"BSTAR":0.00010542992,"MEAN_MOTION_DOT":5.6e-7,"MEAN_MOTION_DDOT":0},{"OBJECT_NAME":"ONEWEB-0638","OBJECT_ID":"2023-029G","EPOCH":"2025-09-11T06:27:34.483104","MEAN_MOTION":13.145029,"ECCENTRICITY":0.00020107,"INCLINATION":87.9092,"RA_OF_ASC_NODE":345.3015,"ARG_OF_PERICENTER":85.9174,"MEAN_ANOMALY":274.2186,"EPHEMERIS_TYPE":0,"CLASSIFICATION_TYPE":"U","NORAD_CAT_ID":55802,"ELEMENT_SET_NO":999,"REV_AT_EPOCH":12275,"BSTAR":-0.00024849851,"MEAN_MOTION_DOT":-7.9e-7,"MEAN_MOTION_DDOT":0},{"OBJECT_NAME":"ONEWEB-0639","OBJECT_ID":"2023-029H","EPOCH":"2025-09-11T00:37:36.229728","MEAN_MOTION":13.19724099,"ECCENTRICITY":6.662e-5,"INCLINATION":87.9286,"RA_OF_ASC_NODE":0.4951,"ARG_OF_PERICENTER":99.5572,"MEAN_ANOMALY":260.5636,"EPHEMERIS_TYPE":0,"CLASSIFICATION_TYPE":"U","NORAD_CAT_ID":55803,"ELEMENT_SET_NO":999,"REV_AT_EPOCH":12208,"BSTAR":0.00010941649,"MEAN_MOTION_DOT":5.7e-7,"MEAN_MOTION_DDOT":0},{"OBJECT_NAME":"ONEWEB-0640","OBJECT_ID":"2023-029J","EPOCH":"2025-09-11T04:51:40.185216","MEAN_MOTION":13.1450363,"ECCENTRICITY":0.00017176,"INCLINATION":87.9086,"RA_OF_ASC_NODE":345.3004,"ARG_OF_PERICENTER":76.7651,"MEAN_ANOMALY":283.367,"EPHEMERIS_TYPE":0,"CLASSIFICATION_TYPE":"U","NORAD_CAT_ID":55804,"ELEMENT_SET_NO":999,"REV_AT_EPOCH":12276,"BSTAR":-0.00048118862,"MEAN_MOTION_DOT":-1.66e-6,"MEAN_MOTION_DDOT":0},{"OBJECT_NAME":"ONEWEB-0641","OBJECT_ID":"2023-029K","EPOCH":"2025-09-11T00:30:45.723456","MEAN_MOTION":13.19724369,"ECCENTRICITY":0.00015875,"INCLINATION":87.9292,"RA_OF_ASC_NODE":0.4691,"ARG_OF_PERICENTER":101.4532,"MEAN_ANOMALY":258.6779,"EPHEMERIS_TYPE":0,"CLASSIFICATION_TYPE":"U","NORAD_CAT_ID":55805,"ELEMENT_SET_NO":999,"REV_AT_EPOCH":12209,"BSTAR":-0.00057329648,"MEAN_MOTION_DOT":-2.17e-6,"MEAN_MOTION_DDOT":0},{"OBJECT_NAME":"ONEWEB-0642","OBJECT_ID":"2023-029L","EPOCH":"2025-09-11T05:51:28.879200","MEAN_MOTION":13.19725108,"ECCENTRICITY":9.827e-5,"INCLINATION":87.9276,"RA_OF_ASC_NODE":0.459,"ARG_OF_PERICENTER":117.2799,"MEAN_ANOMALY":242.8434,"EPHEMERIS_TYPE":0,"CLASSIFICATION_TYPE":"U","NORAD_CAT_ID":55806,"ELEMENT_SET_NO":999,"REV_AT_EPOCH":12211,"BSTAR":0.0002552762,"MEAN_MOTION_DOT":1.15e-6,"MEAN_MOTION_DDOT":0},{"OBJECT_NAME":"ONEWEB-0643","OBJECT_ID":"2023-029M","EPOCH":"2025-09-11T00:29:02.948064","MEAN_MOTION":13.1450437,"ECCENTRICITY":0.00013389,"INCLINATION":87.909,"RA_OF_ASC_NODE":345.3198,"ARG_OF_PERICENTER":121.963,"MEAN_ANOMALY":238.163,"EPHEMERIS_TYPE":0,"CLASSIFICATION_TYPE":"U","NORAD_CAT_ID":55807,"ELEMENT_SET_NO":999,"REV_AT_EPOCH":12271,"BSTAR":0.0005062809,"MEAN_MOTION_DOT":2.0e-6,"MEAN_MOTION_DDOT":0}]
